{
  "type": "FeatureCollection",
  "features": [
    {
      "type": "Feature",
      "properties": {
        "norad_id": 66583,
        "name": "STARLINK-35941",
        "group": "last-30-days",
        "lat": 22.19952702420575,
        "lon": -78.11683725034086,
        "alt_km": 412.2678689972163,
        "timestamp": "2025-12-11T13:55:00.914377+00:00",
        "meta_object_name": "STARLINK-35941",
        "meta_object_id": "2025-268AC",
        "meta_epoch": "2025-12-11T06:00:02.999808",
        "meta_mean_motion": 15.50602254,
        "meta_eccentricity": 0.00017151,
        "meta_inclination": 43.0003,
        "meta_ra_of_asc_node": 129.7844,
        "meta_arg_of_pericenter": 269.9825,
        "meta_mean_anomaly": 192.9225,
        "meta_ephemeris_type": 0,
        "meta_classification_type": "U",
        "meta_norad_cat_id": 66583,
        "meta_element_set_no": 999,
        "meta_rev_at_epoch": 442,
        "meta_bstar": -0.0011590255,
        "meta_mean_motion_dot": -0.00067808,
        "meta_mean_motion_ddot": 0,
        "tle_line1": "1 66583U 25268AC  25345.25003472 -.00067808  00000+0 -11590-2 0  9991",
        "tle_line2": "2 66583  43.0003 129.7844 0001715 269.9825 192.9225 15.50602254  4420"
      },
      "geometry": {
        "type": "Point",
        "coordinates": [
          -78.11683725034086,
          22.19952702420575
        ]
      }
    },
    {
      "type": "Feature",
      "properties": {
        "norad_id": 66584,
        "name": "STARLINK-35939",
        "group": "last-30-days",
        "lat": 20.968879641371853,
        "lon": -76.43416144531776,
        "alt_km": 412.4544861293207,
        "timestamp": "2025-12-11T13:55:00.914393+00:00",
        "meta_object_name": "STARLINK-35939",
        "meta_object_id": "2025-268AD",
        "meta_epoch": "2025-12-11T06:00:02.999808",
        "meta_mean_motion": 15.50665469,
        "meta_eccentricity": 0.00016372,
        "meta_inclination": 43.0003,
        "meta_ra_of_asc_node": 129.78,
        "meta_arg_of_pericenter": 269.2336,
        "meta_mean_anomaly": 195.6388,
        "meta_ephemeris_type": 0,
        "meta_classification_type": "U",
        "meta_norad_cat_id": 66584,
        "meta_element_set_no": 999,
        "meta_rev_at_epoch": 442,
        "meta_bstar": -0.0033514396,
        "meta_mean_motion_dot": -0.00192791,
        "meta_mean_motion_ddot": 0,
        "tle_line1": "1 66584U 25268AD  25345.25003472 -.00192791  00000+0 -33514-2 0  9992",
        "tle_line2": "2 66584  43.0003 129.7800 0001637 269.2336 195.6388 15.50665469  4423"
      },
      "geometry": {
        "type": "Point",
        "coordinates": [
          -76.43416144531776,
          20.968879641371853
        ]
      }
    },
    {
      "type": "Feature",
      "properties": {
        "norad_id": 66585,
        "name": "STARLINK-35963",
        "group": "last-30-days",
        "lat": 19.817520627876434,
        "lon": -74.90479220385626,
        "alt_km": 412.4390195406104,
        "timestamp": "2025-12-11T13:55:00.914405+00:00",
        "meta_object_name": "STARLINK-35963",
        "meta_object_id": "2025-268AE",
        "meta_epoch": "2025-12-11T06:00:02.999808",
        "meta_mean_motion": 15.50599916,
        "meta_eccentricity": 0.00015558,
        "meta_inclination": 43.0004,
        "meta_ra_of_asc_node": 129.7754,
        "meta_arg_of_pericenter": 265.2075,
        "meta_mean_anomaly": 201.5295,
        "meta_ephemeris_type": 0,
        "meta_classification_type": "U",
        "meta_norad_cat_id": 66585,
        "meta_element_set_no": 999,
        "meta_rev_at_epoch": 442,
        "meta_bstar": -0.0010160285,
        "meta_mean_motion_dot": -0.0005954,
        "meta_mean_motion_ddot": 0,
        "tle_line1": "1 66585U 25268AE  25345.25003472 -.00059540  00000+0 -10160-2 0  9999",
        "tle_line2": "2 66585  43.0004 129.7754 0001555 265.2075 201.5295 15.50599916  4425"
      },
      "geometry": {
        "type": "Point",
        "coordinates": [
          -74.90479220385626,
          19.817520627876434
        ]
      }
    },
    {
      "type": "Feature",
      "properties": {
        "norad_id": 66586,
        "name": "TJS-21",
        "group": "last-30-days",
        "lat": 52.41603912954768,
        "lon": -58.459378964873615,
        "alt_km": 29521.769839869008,
        "timestamp": "2025-12-11T13:55:00.914442+00:00",
        "meta_object_name": "TJS-21",
        "meta_object_id": "2025-269A",
        "meta_epoch": "2025-12-10T17:31:22.184832",
        "meta_mean_motion": 2.00567425,
        "meta_eccentricity": 0.6805766,
        "meta_inclination": 63.269,
        "meta_ra_of_asc_node": 162.5612,
        "meta_arg_of_pericenter": 269.7806,
        "meta_mean_anomaly": 18.6565,
        "meta_ephemeris_type": 0,
        "meta_classification_type": "U",
        "meta_norad_cat_id": 66586,
        "meta_element_set_no": 999,
        "meta_rev_at_epoch": 39,
        "meta_bstar": -0.044965385,
        "meta_mean_motion_dot": 1.083e-05,
        "meta_mean_motion_ddot": 0,
        "tle_line1": "1 66586U 25269A   25344.73011788  .00001083  00000+0 -44965-1 0  9999",
        "tle_line2": "2 66586  63.2690 162.5612 6805766 269.7806  18.6565  2.00567425   392"
      },
      "geometry": {
        "type": "Point",
        "coordinates": [
          -58.459378964873615,
          52.41603912954768
        ]
      }
    },
    {
      "type": "Feature",
      "properties": {
        "norad_id": 66587,
        "name": "CZ-3B R/B",
        "group": "last-30-days",
        "lat": 43.2130508937656,
        "lon": -141.27241359243922,
        "alt_km": 36511.485345685775,
        "timestamp": "2025-12-11T13:55:00.914460+00:00",
        "meta_object_name": "CZ-3B R/B",
        "meta_object_id": "2025-269B",
        "meta_epoch": "2025-12-10T19:33:40.006368",
        "meta_mean_motion": 2.03086829,
        "meta_eccentricity": 0.7519519,
        "meta_inclination": 51.3442,
        "meta_ra_of_asc_node": 170.0917,
        "meta_arg_of_pericenter": 228.3676,
        "meta_mean_anomaly": 37.5722,
        "meta_ephemeris_type": 0,
        "meta_classification_type": "U",
        "meta_norad_cat_id": 66587,
        "meta_element_set_no": 999,
        "meta_rev_at_epoch": 41,
        "meta_bstar": 0.0011692039,
        "meta_mean_motion_dot": 0.00057137,
        "meta_mean_motion_ddot": 1.092514e-06,
        "tle_line1": "1 66587U 25269B   25344.81504637  .00057137  10925-5  11692-2 0  9994",
        "tle_line2": "2 66587  51.3442 170.0917 7519519 228.3676  37.5722  2.03086829   418"
      },
      "geometry": {
        "type": "Point",
        "coordinates": [
          -141.27241359243922,
          43.2130508937656
        ]
      }
    },
    {
      "type": "Feature",
      "properties": {
        "norad_id": 66588,
        "name": "STARLINK-36076",
        "group": "last-30-days",
        "lat": 16.08142155815347,
        "lon": -142.45633656926648,
        "alt_km": 417.8545103797287,
        "timestamp": "2025-12-11T13:55:00.914472+00:00",
        "meta_object_name": "STARLINK-36076",
        "meta_object_id": "2025-270A",
        "meta_epoch": "2025-12-11T06:00:02.999808",
        "meta_mean_motion": 15.50320444,
        "meta_eccentricity": 0.00010047,
        "meta_inclination": 43,
        "meta_ra_of_asc_node": 201.4495,
        "meta_arg_of_pericenter": 242.0207,
        "meta_mean_anomaly": 99.7651,
        "meta_ephemeris_type": 0,
        "meta_classification_type": "U",
        "meta_norad_cat_id": 66588,
        "meta_element_set_no": 999,
        "meta_rev_at_epoch": 416,
        "meta_bstar": -0.036583456,
        "meta_mean_motion_dot": -0.01909478,
        "meta_mean_motion_ddot": 0,
        "tle_line1": "1 66588U 25270A   25345.25003472 -.01909478  00000+0 -36583-1 0  9996",
        "tle_line2": "2 66588  43.0000 201.4495 0001004 242.0207  99.7651 15.50320444  4165"
      },
      "geometry": {
        "type": "Point",
        "coordinates": [
          -142.45633656926648,
          16.08142155815347
        ]
      }
    },
    {
      "type": "Feature",
      "properties": {
        "norad_id": 66589,
        "name": "STARLINK-35447",
        "group": "last-30-days",
        "lat": 19.21167314446329,
        "lon": -138.5302902058896,
        "alt_km": 412.9143554838074,
        "timestamp": "2025-12-11T13:55:00.914482+00:00",
        "meta_object_name": "STARLINK-35447",
        "meta_object_id": "2025-270B",
        "meta_epoch": "2025-12-11T06:00:02.999808",
        "meta_mean_motion": 15.50672257,
        "meta_eccentricity": 0.00021338,
        "meta_inclination": 42.9998,
        "meta_ra_of_asc_node": 201.4399,
        "meta_arg_of_pericenter": 263.8826,
        "meta_mean_anomaly": 81.6158,
        "meta_ephemeris_type": 0,
        "meta_classification_type": "U",
        "meta_norad_cat_id": 66589,
        "meta_element_set_no": 999,
        "meta_rev_at_epoch": 426,
        "meta_bstar": -0.0035398873,
        "meta_mean_motion_dot": -0.00203403,
        "meta_mean_motion_ddot": 0,
        "tle_line1": "1 66589U 25270B   25345.25003472 -.00203403  00000+0 -35399-2 0  9996",
        "tle_line2": "2 66589  42.9998 201.4399 0002133 263.8826  81.6158 15.50672257  4260"
      },
      "geometry": {
        "type": "Point",
        "coordinates": [
          -138.5302902058896,
          19.21167314446329
        ]
      }
    }
  ]
}